{
  "type": "FeatureCollection",
  "features": [
    {
      "type": "Feature",
      "properties": {
        "norad_id": 42988,
        "name": "SKYSAT-C10",
        "group": "resource",
        "lat": 0.684426936823061,
        "lon": -71.79291306542842,
        "alt_km": 470.9758805067413,
        "timestamp": "2025-12-03T06:58:42.898880+00:00",
        "meta_object_name": "SKYSAT-C10",
        "meta_object_id": "2017-068B",
        "meta_epoch": "2025-12-02T19:13:33.649824",
        "meta_mean_motion": 15.31968347,
        "meta_eccentricity": 0.0005481,
        "meta_inclination": 97.4252,
        "meta_ra_of_asc_node": 107.627,
        "meta_arg_of_pericenter": 121.9495,
        "meta_mean_anomaly": 238.228,
        "meta_ephemeris_type": 0,
        "meta_classification_type": "U",
        "meta_norad_cat_id": 42988,
        "meta_element_set_no": 999,
        "meta_rev_at_epoch": 45227,
        "meta_bstar": 0.00047679,
        "meta_mean_motion_dot": 0.00014656,
        "meta_mean_motion_ddot": 0,
        "tle_line1": "1 42988U 17068B   25336.80108391  .00014656  00000+0  47679-3 0  9999",
        "tle_line2": "2 42988  97.4252 107.6270 0005481 121.9495 238.2280 15.31968347452276"
      },
      "geometry": {
        "type": "Point",
        "coordinates": [
          -71.79291306542842,
          0.684426936823061
        ]
      }
    },
    {
      "type": "Feature",
      "properties": {
        "norad_id": 42989,
        "name": "SKYSAT-C9",
        "group": "resource",
        "lat": -71.53622942150928,
        "lon": -95.49433620116135,
        "alt_km": 471.3783162030559,
        "timestamp": "2025-12-03T06:58:42.898890+00:00",
        "meta_object_name": "SKYSAT-C9",
        "meta_object_id": "2017-068C",
        "meta_epoch": "2025-12-02T20:29:51.712800",
        "meta_mean_motion": 15.35646888,
        "meta_eccentricity": 0.0010639,
        "meta_inclination": 97.4179,
        "meta_ra_of_asc_node": 107.0333,
        "meta_arg_of_pericenter": 119.9462,
        "meta_mean_anomaly": 240.2839,
        "meta_ephemeris_type": 0,
        "meta_classification_type": "U",
        "meta_norad_cat_id": 42989,
        "meta_element_set_no": 999,
        "meta_rev_at_epoch": 45256,
        "meta_bstar": 0.0004976,
        "meta_mean_motion_dot": 0.00017214,
        "meta_mean_motion_ddot": 0,
        "tle_line1": "1 42989U 17068C   25336.85407075  .00017214  00000+0  49760-3 0  9992",
        "tle_line2": "2 42989  97.4179 107.0333 0010639 119.9462 240.2839 15.35646888452563"
      },
      "geometry": {
        "type": "Point",
        "coordinates": [
          -95.49433620116135,
          -71.53622942150928
        ]
      }
    },
    {
      "type": "Feature",
      "properties": {
        "norad_id": 42990,
        "name": "SKYSAT-C8",
        "group": "resource",
        "lat": -30.67670925680293,
        "lon": 111.69076663176867,
        "alt_km": 473.2432713863136,
        "timestamp": "2025-12-03T06:58:42.898900+00:00",
        "meta_object_name": "SKYSAT-C8",
        "meta_object_id": "2017-068D",
        "meta_epoch": "2025-12-02T18:34:38.624160",
        "meta_mean_motion": 15.32573137,
        "meta_eccentricity": 0.0002164,
        "meta_inclination": 97.4273,
        "meta_ra_of_asc_node": 106.7339,
        "meta_arg_of_pericenter": 21.9121,
        "meta_mean_anomaly": 338.2213,
        "meta_ephemeris_type": 0,
        "meta_classification_type": "U",
        "meta_norad_cat_id": 42990,
        "meta_element_set_no": 999,
        "meta_rev_at_epoch": 45218,
        "meta_bstar": 0.00048674,
        "meta_mean_motion_dot": 0.00015245,
        "meta_mean_motion_ddot": 0,
        "tle_line1": "1 42990U 17068D   25336.77405815  .00015245  00000+0  48674-3 0  9990",
        "tle_line2": "2 42990  97.4273 106.7339 0002164  21.9121 338.2213 15.32573137452185"
      },
      "geometry": {
        "type": "Point",
        "coordinates": [
          111.69076663176867,
          -30.67670925680293
        ]
      }
    },
    {
      "type": "Feature",
      "properties": {
        "norad_id": 42991,
        "name": "SKYSAT-C7",
        "group": "resource",
        "lat": -24.69520949258519,
        "lon": -75.13823694888885,
        "alt_km": 478.09799980819935,
        "timestamp": "2025-12-03T06:58:42.898910+00:00",
        "meta_object_name": "SKYSAT-C7",
        "meta_object_id": "2017-068E",
        "meta_epoch": "2025-12-02T19:06:53.457984",
        "meta_mean_motion": 15.31982094,
        "meta_eccentricity": 0.0007856,
        "meta_inclination": 97.428,
        "meta_ra_of_asc_node": 107.8056,
        "meta_arg_of_pericenter": 87.9943,
        "meta_mean_anomaly": 272.2199,
        "meta_ephemeris_type": 0,
        "meta_classification_type": "U",
        "meta_norad_cat_id": 42991,
        "meta_element_set_no": 999,
        "meta_rev_at_epoch": 45225,
        "meta_bstar": 0.00047328,
        "meta_mean_motion_dot": 0.00014561,
        "meta_mean_motion_ddot": 0,
        "tle_line1": "1 42991U 17068E   25336.79645206  .00014561  00000+0  47328-3 0  9998",
        "tle_line2": "2 42991  97.4280 107.8056 0007856  87.9943 272.2199 15.31982094452252"
      },
      "geometry": {
        "type": "Point",
        "coordinates": [
          -75.13823694888885,
          -24.69520949258519
        ]
      }
    },
    {
      "type": "Feature",
      "properties": {
        "norad_id": 42992,
        "name": "SKYSAT-C6",
        "group": "resource",
        "lat": -10.264691389370938,
        "lon": 110.10183896854562,
        "alt_km": 478.365792982132,
        "timestamp": "2025-12-03T06:58:42.898920+00:00",
        "meta_object_name": "SKYSAT-C6",
        "meta_object_id": "2017-068F",
        "meta_epoch": "2025-12-02T20:02:40.619904",
        "meta_mean_motion": 15.3116287,
        "meta_eccentricity": 0.0005141,
        "meta_inclination": 97.4315,
        "meta_ra_of_asc_node": 108.2909,
        "meta_arg_of_pericenter": 110.7435,
        "meta_mean_anomaly": 249.4357,
        "meta_ephemeris_type": 0,
        "meta_classification_type": "U",
        "meta_norad_cat_id": 42992,
        "meta_element_set_no": 999,
        "meta_rev_at_epoch": 45224,
        "meta_bstar": 0.00046924,
        "meta_mean_motion_dot": 0.00014064,
        "meta_mean_motion_ddot": 0,
        "tle_line1": "1 42992U 17068F   25336.83519236  .00014064  00000+0  46924-3 0  9996",
        "tle_line2": "2 42992  97.4315 108.2909 0005141 110.7435 249.4357 15.31162870452243"
      },
      "geometry": {
        "type": "Point",
        "coordinates": [
          110.10183896854562,
          -10.264691389370938
        ]
      }
    },
    {
      "type": "Feature",
      "properties": {
        "norad_id": 43111,
        "name": "CARTOSAT-2F",
        "group": "resource",
        "lat": 32.072908449814406,
        "lon": -140.2264055012981,
        "alt_km": 505.51997046270935,
        "timestamp": "2025-12-03T06:58:42.898934+00:00",
        "meta_object_name": "CARTOSAT-2F",
        "meta_object_id": "2018-004A",
        "meta_epoch": "2025-12-03T01:35:21.916032",
        "meta_mean_motion": 15.19340627,
        "meta_eccentricity": 0.0001105,
        "meta_inclination": 97.4331,
        "meta_ra_of_asc_node": 34.8599,
        "meta_arg_of_pericenter": 194.5597,
        "meta_mean_anomaly": 165.5606,
        "meta_ephemeris_type": 0,
        "meta_classification_type": "U",
        "meta_norad_cat_id": 43111,
        "meta_element_set_no": 999,
        "meta_rev_at_epoch": 43755,
        "meta_bstar": 6.7463e-05,
        "meta_mean_motion_dot": 1.358e-05,
        "meta_mean_motion_ddot": 0,
        "tle_line1": "1 43111U 18004A   25337.06622588  .00001358  00000+0  67463-4 0  9996",
        "tle_line2": "2 43111  97.4331  34.8599 0001105 194.5597 165.5606 15.19340627437555"
      },
      "geometry": {
        "type": "Point",
        "coordinates": [
          -140.2264055012981,
          32.072908449814406
        ]
      }
    },
    {
      "type": "Feature",
      "properties": {
        "norad_id": 43259,
        "name": "GAOFEN-1 02",
        "group": "resource",
        "lat": -72.01941465722392,
        "lon": 61.04171655329895,
        "alt_km": 647.0453345857013,
        "timestamp": "2025-12-03T06:58:42.898947+00:00",
        "meta_object_name": "GAOFEN-1 02",
        "meta_object_id": "2018-031A",
        "meta_epoch": "2025-12-02T21:33:13.364640",
        "meta_mean_motion": 14.76446302,
        "meta_eccentricity": 0.0001289,
        "meta_inclination": 98.0821,
        "meta_ra_of_asc_node": 34.6829,
        "meta_arg_of_pericenter": 261.14,
        "meta_mean_anomaly": 98.9663,
        "meta_ephemeris_type": 0,
        "meta_classification_type": "U",
        "meta_norad_cat_id": 43259,
        "meta_element_set_no": 999,
        "meta_rev_at_epoch": 41373,
        "meta_bstar": 0.00020017,
        "meta_mean_motion_dot": 1.341e-05,
        "meta_mean_motion_ddot": 0,
        "tle_line1": "1 43259U 18031A   25336.89807135  .00001341  00000+0  20017-3 0  9997",
        "tle_line2": "2 43259  98.0821  34.6829 0001289 261.1400  98.9663 14.76446302413735"
      },
      "geometry": {
        "type": "Point",
        "coordinates": [
          61.04171655329895,
          -72.01941465722392
        ]
      }
    }
  ]
}